PERSEUS-M1              
1 40039U 14033AF  26131.10430679  .00001117  00000+0  10618-3 0  9998
2 40039  97.9624  74.6365 0012886  63.9247 296.3298 14.95503731645093
POLYITAN-1              
1 40042U 14033AJ  26131.03190748  .00010972  00000+0  35800-3 0  9993
2 40042  98.0978 153.8153 0005349 275.3856  84.6773 15.31976377647906
TIGRISAT                
1 40043U 14033AK  26130.99049388  .00001549  00000+0  18416-3 0  9995
2 40043  97.7788 281.8688 0049115 195.1065 164.8687 14.85001449640104
AEROCUBE 6A             
1 40045U 14033AM  26131.01510667  .00004997  00000+0  42462-3 0  9992
2 40045  97.7212 298.3780 0040184 138.2254 222.2048 14.97690947641054
AEROCUBE 6B             
1 40046U 14033AN  26131.18669723  .00004054  00000+0  33359-3 0  9998
2 40046  97.7175 298.2644 0037783 131.1149 229.3346 14.99115993641219
CANX-4                  
1 40055U 14034C   26131.13324787  .00000551  00000+0  78130-4 0  9997
2 40055  98.3173   5.0787 0013816 126.6228 233.6256 14.81194950639041
CANX-5                  
1 40056U 14034D   26131.13210851  .00000542  00000+0  76856-4 0  9997
2 40056  98.3174   5.1188 0013808 126.8565 233.3915 14.81211910629859
UKUBE-1                 
1 40074U 14037F   26130.93999816  .00005489  00000+0  31571-3 0  9991
2 40074  98.4249 130.3192 0000519  43.5376 316.5894 15.12954494642928
BRITE-PL2 (HEWELIUSZ)   
1 40119U 14049B   26130.87976016  .00001007  00000+0  98794-4 0  9997
2 40119  97.9055 242.6050 0012956 229.6649 130.3440 14.94453603635875
AEROCUBE 5C             
1 40965U 15058B   26131.02081789  .00002105  00000+0  19503-3 0  9999
2 40965  64.7690  18.1937 0129755  77.8891 283.6724 14.91240223360117
AEROCUBE 7              
1 40966U 15058C   26131.05548126  .00002922  00000+0  24264-3 0  9993
2 40966  64.7640   1.0944 0119555  76.5651 284.8755 14.95434149360404
FOX-1A (AO-85)          
1 40967U 15058D   26131.12332539  .00002179  00000+0  20423-3 0  9998
2 40967  64.7766  34.1460 0128911  71.1275 290.3763 14.90748371108044
SINOD-D 1               
1 40968U 15058E   26131.10472419  .00003030  00000+0  25114-3 0  9998
2 40968  64.7770  15.0135 0117393  67.9327 293.4204 14.95612391111113
SNAP-3 ALICE            
1 40970U 15058G   26130.64114278  .00050121  00000+0  77559-3 0  9998
2 40970  64.7528 232.9292 0032559  32.1820 328.1300 15.53151617111042
LMRST-SAT               
1 40971U 15058H   26131.13637966  .00002158  00000+0  20353-3 0  9995
2 40971  64.7773  30.3740 0130695  73.1434 288.3963 14.90373880108034
SNAP-3 EDDIE            
1 40972U 15058J   26130.98141391  .00056241  00000+0  83143-3 0  9998
2 40972  64.7446 222.7550 0033119  35.6333 324.7011 15.54340208113238
PROPCUBE 3              
1 40973U 15058K   26131.06159416  .00002630  00000+0  22658-3 0  9993
2 40973  64.7702   8.5073 0122896  74.6954 286.7704 14.94001315109256
BISONSAT                
1 40974U 15058L   26131.15238868  .00007950  00000+0  39706-3 0  9995
2 40974  64.7596 293.3024 0078641  63.3923 297.5231 15.15436866110004
SNAP-3 JIMI             
1 40975U 15058M   26130.90578538  .00004186  00000+0  29620-3 0  9991
2 40975  64.7663 337.6932 0104853  70.8247 290.4183 15.01913119108626
PROPCUBE 1 (FLORA)      
1 40976U 15058N   26131.19156545  .00002008  00000+0  19789-3 0  9990
2 40976  64.7756  49.8749 0129508  75.3994 286.1437 14.89008449110758
SINOD-D 3               
1 40977U 15058P   26131.08685375  .00002895  00000+0  25250-3 0  9991
2 40977  64.7739  31.6452 0118001  72.9502 288.4499 14.93728583109219
HORYU-4                 
1 41340U 16012D   26130.90637118  .00131902  00000+0  74753-3 0  9993
2 41340  30.9896 348.4205 0005704   6.7696 353.3037 15.77528373564899
RAVAN                   
1 41849U 16067B   26131.18411788  .00027874  00000+0  47515-3 0  9999
2 41849  97.9940  16.5831 0007217 124.4024 235.7910 15.51314112521957
CELTEE 1                
1 41850U 16067C   26131.06591826  .00003011  00000+0  14632-3 0  9991
2 41850  98.0724 355.1030 0001895  61.4203 298.7220 15.19312541520241
OPTICUBE 04             
1 41851U 16067D   26131.15831346  .00001198  00000+0  79064-4 0  9991
2 41851  98.0739 341.5069 0014388 240.6297 119.3494 15.09500079519584
AEROCUBE 8D             
1 41852U 16067E   26131.19284631  .00004501  00000+0  18991-3 0  9997
2 41852  98.0737 358.5566 0001891 257.1576 102.9448 15.23875407520430
AEROCUBE 8C             
1 41853U 16067F   26131.09240816  .00004897  00000+0  20480-3 0  9998
2 41853  98.0607 355.7248 0005354 173.2379 186.8929 15.24112366520412
CORVUS BC2              
1 42846U 17042X   26130.99083493  .00002520  00000+0  17646-3 0  9990
2 42846  97.4039 293.8018 0011940 235.4949 124.5152 15.06057313481464
CORVUS BC1              
1 42847U 17042Y   26131.18896920  .00002423  00000+0  16911-3 0  9996
2 42847  97.4072 294.7819 0011205 208.3299 151.7320 15.06230382481527
MAKERSAT 0              
1 43016U 17073D   26131.19444801  .00016348  00000+0  45809-3 0  9996
2 43016  97.4680  13.4606 0112017  45.4177 315.6139 15.30516462460809
SIRION PATHFINDER-2     
1 43759U 18099B   26131.11303013  .00002717  00000+0  15222-3 0  9991
2 43759  97.4283 181.0560 0010360  73.2077 287.0291 15.14204526407011
