OBJECT_NAME,OBJECT_ID,EPOCH,MEAN_MOTION,ECCENTRICITY,INCLINATION,RA_OF_ASC_NODE,ARG_OF_PERICENTER,MEAN_ANOMALY,EPHEMERIS_TYPE,CLASSIFICATION_TYPE,NORAD_CAT_ID,ELEMENT_SET_NO,REV_AT_EPOCH,BSTAR,MEAN_MOTION_DOT,MEAN_MOTION_DDOT
PERSEUS-M1,2014-033AF,2026-05-11T02:30:12.106656,14.95503731,.0012886,97.9624,74.6365,63.9247,296.3298,0,U,40039,999,64509,.10618E-3,.1117E-4,0
POLYITAN-1,2014-033AJ,2026-05-11T00:45:56.806272,15.31976377,.0005349,98.0978,153.8153,275.3856,84.6773,0,U,40042,999,64790,.358E-3,.10972E-3,0
TIGRISAT,2014-033AK,2026-05-10T23:46:18.671232,14.85001449,.0049115,97.7788,281.8688,195.1065,164.8687,0,U,40043,999,64010,.18416E-3,.1549E-4,0
AEROCUBE 6A,2014-033AM,2026-05-11T00:21:45.216288,14.97690947,.0040184,97.7212,298.3780,138.2254,222.2048,0,U,40045,999,64105,.42462E-3,.4997E-4,0
AEROCUBE 6B,2014-033AN,2026-05-11T04:28:50.640672,14.99115993,.0037783,97.7175,298.2644,131.1149,229.3346,0,U,40046,999,64121,.33359E-3,.4054E-4,0
CANX-4,2014-034C,2026-05-11T03:11:52.615104,14.81194950,.0013817,98.3173,5.0787,126.6228,233.6256,0,U,40055,999,63904,.7813E-4,.551E-5,0
CANX-5,2014-034D,2026-05-11T03:10:14.175264,14.81211910,.0013808,98.3174,5.1188,126.8565,233.3915,0,U,40056,999,62985,.76856E-4,.542E-5,0
UKUBE-1,2014-037F,2026-05-10T22:33:35.841024,15.12954494,.000052,98.4249,130.3192,43.5376,316.5894,0,U,40074,999,64292,.31571E-3,.5489E-4,0
BRITE-PL2 (HEWELIUSZ),2014-049B,2026-05-10T21:06:51.276960,14.94453603,.0012956,97.9055,242.6050,229.6649,130.3440,0,U,40119,999,63587,.98794E-4,.1007E-4,0
AEROCUBE 5C,2015-058B,2026-05-11T00:29:58.665696,14.91240223,.0129755,64.7690,18.1937,77.8891,283.6724,0,U,40965,999,36011,.19503E-3,.2105E-4,0
AEROCUBE 7,2015-058C,2026-05-11T01:19:53.580864,14.95434149,.0119555,64.7640,1.0944,76.5651,284.8755,0,U,40966,999,36040,.24264E-3,.2922E-4,0
FOX-1A (AO-85),2015-058D,2026-05-11T02:57:35.312832,14.90748371,.0128912,64.7766,34.1460,71.1275,290.3763,0,U,40967,999,10804,.20423E-3,.2179E-4,0
SINOD-D 1,2015-058E,2026-05-11T02:30:48.170016,14.95612391,.0117393,64.7770,15.0135,67.9327,293.4204,0,U,40968,999,11111,.25114E-3,.303E-4,0
SNAP-3 ALICE,2015-058G,2026-05-10T15:23:14.736192,15.53151617,.0032559,64.7528,232.9292,32.1820,328.1300,0,U,40970,999,11104,.77559E-3,.50121E-3,0
LMRST-SAT,2015-058H,2026-05-11T03:16:23.201760,14.90373880,.0130696,64.7773,30.3740,73.1434,288.3963,0,U,40971,999,10803,.20353E-3,.2158E-4,0
SNAP-3 EDDIE,2015-058J,2026-05-10T23:33:14.161824,15.54340208,.0033119,64.7446,222.7550,35.6333,324.7011,0,U,40972,999,11323,.83143E-3,.56241E-3,0
PROPCUBE 3,2015-058K,2026-05-11T01:28:41.735424,14.94001315,.0122896,64.7702,8.5073,74.6954,286.7704,0,U,40973,999,10925,.22658E-3,.263E-4,0
BISONSAT,2015-058L,2026-05-11T03:39:26.381952,15.15436866,.0078641,64.7596,293.3024,63.3923,297.5231,0,U,40974,999,11000,.39706E-3,.795E-4,0
SNAP-3 JIMI,2015-058M,2026-05-10T21:44:19.855968,15.01913119,.0104853,64.7663,337.6932,70.8247,290.4183,0,U,40975,999,10862,.2962E-3,.4186E-4,0
PROPCUBE 1 (FLORA),2015-058N,2026-05-11T04:35:51.254880,14.89008449,.0129508,64.7756,49.8749,75.3994,286.1437,0,U,40976,999,11075,.19789E-3,.2008E-4,0
SINOD-D 3,2015-058P,2026-05-11T02:05:04.164000,14.93728583,.0118001,64.7739,31.6452,72.9502,288.4499,0,U,40977,999,10921,.2525E-3,.2895E-4,0
HORYU-4,2016-012D,2026-05-10T21:45:10.469088,15.77528373,.0005704,30.9896,348.4205,6.7696,353.3037,0,U,41340,999,56489,.74753E-3,.131902E-2,0
RAVAN,2016-067B,2026-05-11T04:25:07.784832,15.51314112,.0007217,97.9940,16.5831,124.4024,235.7910,0,U,41849,999,52195,.47515E-3,.27874E-3,0
CELTEE 1,2016-067C,2026-05-11T01:34:55.337664,15.19312541,.0001895,98.0724,355.1030,61.4203,298.7220,0,U,41850,999,52024,.14632E-3,.3011E-4,0
OPTICUBE 04,2016-067D,2026-05-11T03:47:58.282944,15.09500079,.0014388,98.0739,341.5069,240.6297,119.3494,0,U,41851,999,51958,.79064E-4,.1198E-4,0
AEROCUBE 8D,2016-067E,2026-05-11T04:37:41.921184,15.23875407,.0001891,98.0737,358.5566,257.1576,102.9448,0,U,41852,999,52043,.18991E-3,.4501E-4,0
AEROCUBE 8C,2016-067F,2026-05-11T02:13:04.065024,15.24112366,.0005354,98.0607,355.7248,173.2379,186.8929,0,U,41853,999,52041,.2048E-3,.4897E-4,0
CORVUS BC2,2017-042X,2026-05-10T23:46:48.137952,15.06057313,.001194,97.4039,293.8018,235.4949,124.5152,0,U,42846,999,48146,.17646E-3,.252E-4,0
CORVUS BC1,2017-042Y,2026-05-11T04:32:06.938880,15.06230382,.0011205,97.4072,294.7819,208.3299,151.7320,0,U,42847,999,48152,.16911E-3,.2423E-4,0
MAKERSAT 0,2017-073D,2026-05-11T04:40:00.308064,15.30516462,.0112017,97.4680,13.4606,45.4177,315.6139,0,U,43016,999,46080,.45809E-3,.16348E-3,0
SIRION PATHFINDER-2,2018-099B,2026-05-11T02:42:45.803232,15.14204526,.001036,97.4283,181.0560,73.2077,287.0291,0,U,43759,999,40701,.15222E-3,.2717E-4,0
